{
  "type": "FeatureCollection",
  "features": [
    {
      "type": "Feature",
      "properties": {
        "norad_id": 36083,
        "name": "IRIDIUM 33 DEB",
        "group": "iridium-33-debris",
        "lat": -48.032192269155615,
        "lon": 29.43366372964992,
        "alt_km": 755.6263317631974,
        "timestamp": "2025-12-14T05:42:18.847421+00:00",
        "meta_object_name": "IRIDIUM 33 DEB",
        "meta_object_id": "1997-051VQ",
        "meta_epoch": "2025-12-06T21:32:26.892672",
        "meta_mean_motion": 14.43175138,
        "meta_eccentricity": 0.00247889,
        "meta_inclination": 86.3442,
        "meta_ra_of_asc_node": 36.6683,
        "meta_arg_of_pericenter": 243.3344,
        "meta_mean_anomaly": 116.5319,
        "meta_ephemeris_type": 0,
        "meta_classification_type": "U",
        "meta_norad_cat_id": 36083,
        "meta_element_set_no": 999,
        "meta_rev_at_epoch": 85365,
        "meta_bstar": 0.00098432537,
        "meta_mean_motion_dot": 3.337e-05,
        "meta_mean_motion_ddot": 0,
        "tle_line1": "1 36083U 97051VQ  25340.89753348  .00003337  00000+0  98433-3 0  9998",
        "tle_line2": "2 36083  86.3442  36.6683 0024788 243.3344 116.5319 14.43175138853653"
      },
      "geometry": {
        "type": "Point",
        "coordinates": [
          29.43366372964992,
          -48.032192269155615
        ]
      }
    },
    {
      "type": "Feature",
      "properties": {
        "norad_id": 36390,
        "name": "IRIDIUM 33 DEB",
        "group": "iridium-33-debris",
        "lat": -65.84838792112846,
        "lon": -69.6108735077815,
        "alt_km": 672.511476341876,
        "timestamp": "2025-12-14T05:42:18.847431+00:00",
        "meta_object_name": "IRIDIUM 33 DEB",
        "meta_object_id": "1997-051VU",
        "meta_epoch": "2025-12-10T04:13:18.491808",
        "meta_mean_motion": 14.73548967,
        "meta_eccentricity": 0.00303441,
        "meta_inclination": 86.2912,
        "meta_ra_of_asc_node": 300.5678,
        "meta_arg_of_pericenter": 170.4809,
        "meta_mean_anomaly": 189.6991,
        "meta_ephemeris_type": 0,
        "meta_classification_type": "U",
        "meta_norad_cat_id": 36390,
        "meta_element_set_no": 999,
        "meta_rev_at_epoch": 66224,
        "meta_bstar": 0.0016206136,
        "meta_mean_motion_dot": 0.00010646,
        "meta_mean_motion_ddot": 0,
        "tle_line1": "1 36390U 97051VU  25344.17590847  .00010646  00000+0  16206-2 0  9995",
        "tle_line2": "2 36390  86.2912 300.5678 0030344 170.4809 189.6991 14.73548967662240"
      },
      "geometry": {
        "type": "Point",
        "coordinates": [
          -69.6108735077815,
          -65.84838792112846
        ]
      }
    },
    {
      "type": "Feature",
      "properties": {
        "norad_id": 36483,
        "name": "IRIDIUM 33 DEB",
        "group": "iridium-33-debris",
        "lat": 50.62387645695279,
        "lon": -132.57629302837108,
        "alt_km": 726.8396753825273,
        "timestamp": "2025-12-14T05:42:18.847442+00:00",
        "meta_object_name": "IRIDIUM 33 DEB",
        "meta_object_id": "1997-051VZ",
        "meta_epoch": "2025-12-13T10:50:21.003936",
        "meta_mean_motion": 14.45815478,
        "meta_eccentricity": 0.00112504,
        "meta_inclination": 86.3797,
        "meta_ra_of_asc_node": 52.1844,
        "meta_arg_of_pericenter": 123.854,
        "meta_mean_anomaly": 236.3734,
        "meta_ephemeris_type": 0,
        "meta_classification_type": "U",
        "meta_norad_cat_id": 36483,
        "meta_element_set_no": 999,
        "meta_rev_at_epoch": 65156,
        "meta_bstar": 0.00081590403,
        "meta_mean_motion_dot": 2.915e-05,
        "meta_mean_motion_ddot": 0,
        "tle_line1": "1 36483U 97051VZ  25347.45163199  .00002915  00000+0  81590-3 0  9997",
        "tle_line2": "2 36483  86.3797  52.1844 0011250 123.8540 236.3734 14.45815478651560"
      },
      "geometry": {
        "type": "Point",
        "coordinates": [
          -132.57629302837108,
          50.62387645695279
        ]
      }
    },
    {
      "type": "Feature",
      "properties": {
        "norad_id": 36490,
        "name": "IRIDIUM 33 DEB",
        "group": "iridium-33-debris",
        "lat": -9.945721104593234,
        "lon": -169.57382042543543,
        "alt_km": 646.9125273638801,
        "timestamp": "2025-12-14T05:42:18.847453+00:00",
        "meta_object_name": "IRIDIUM 33 DEB",
        "meta_object_id": "1997-051WG",
        "meta_epoch": "2025-12-13T01:11:31.805088",
        "meta_mean_motion": 14.76204649,
        "meta_eccentricity": 0.00055088,
        "meta_inclination": 86.3658,
        "meta_ra_of_asc_node": 10.3233,
        "meta_arg_of_pericenter": 82.9348,
        "meta_mean_anomaly": 277.2498,
        "meta_ephemeris_type": 0,
        "meta_classification_type": "U",
        "meta_norad_cat_id": 36490,
        "meta_element_set_no": 999,
        "meta_rev_at_epoch": 86489,
        "meta_bstar": 0.0021967802,
        "meta_mean_motion_dot": 0.00015238,
        "meta_mean_motion_ddot": 0,
        "tle_line1": "1 36490U 97051WG  25347.04967367  .00015238  00000+0  21968-2 0  9993",
        "tle_line2": "2 36490  86.3658  10.3233 0005508  82.9348 277.2498 14.76204649864891"
      },
      "geometry": {
        "type": "Point",
        "coordinates": [
          -169.57382042543543,
          -9.945721104593234
        ]
      }
    },
    {
      "type": "Feature",
      "properties": {
        "norad_id": 36493,
        "name": "IRIDIUM 33 DEB",
        "group": "iridium-33-debris",
        "lat": 53.28214162923591,
        "lon": 15.914328694532456,
        "alt_km": 667.0353920907392,
        "timestamp": "2025-12-14T05:42:18.847463+00:00",
        "meta_object_name": "IRIDIUM 33 DEB",
        "meta_object_id": "1997-051WK",
        "meta_epoch": "2025-12-13T08:09:20.242368",
        "meta_mean_motion": 14.65247958,
        "meta_eccentricity": 0.00101315,
        "meta_inclination": 86.3571,
        "meta_ra_of_asc_node": 11.4132,
        "meta_arg_of_pericenter": 3.2575,
        "meta_mean_anomaly": 356.8702,
        "meta_ephemeris_type": 0,
        "meta_classification_type": "U",
        "meta_norad_cat_id": 36493,
        "meta_element_set_no": 999,
        "meta_rev_at_epoch": 74527,
        "meta_bstar": 0.0021348411,
        "meta_mean_motion_dot": 0.00011538,
        "meta_mean_motion_ddot": 0,
        "tle_line1": "1 36493U 97051WK  25347.33981762  .00011538  00000+0  21348-2 0  9994",
        "tle_line2": "2 36493  86.3571  11.4132 0010131   3.2575 356.8702 14.65247958745274"
      },
      "geometry": {
        "type": "Point",
        "coordinates": [
          15.914328694532456,
          53.28214162923591
        ]
      }
    },
    {
      "type": "Feature",
      "properties": {
        "norad_id": 37548,
        "name": "IRIDIUM 33 DEB",
        "group": "iridium-33-debris",
        "lat": 14.439347264228921,
        "lon": -138.22626255029158,
        "alt_km": 704.9940626897651,
        "timestamp": "2025-12-14T05:42:18.847473+00:00",
        "meta_object_name": "IRIDIUM 33 DEB",
        "meta_object_id": "1997-051XH",
        "meta_epoch": "2025-12-13T10:44:34.243584",
        "meta_mean_motion": 14.51312722,
        "meta_eccentricity": 0.00257089,
        "meta_inclination": 86.3511,
        "meta_ra_of_asc_node": 43.059,
        "meta_arg_of_pericenter": 186.1845,
        "meta_mean_anomaly": 173.9047,
        "meta_ephemeris_type": 0,
        "meta_classification_type": "U",
        "meta_norad_cat_id": 37548,
        "meta_element_set_no": 999,
        "meta_rev_at_epoch": 65542,
        "meta_bstar": 0.0016301085,
        "meta_mean_motion_dot": 6.537e-05,
        "meta_mean_motion_ddot": 0,
        "tle_line1": "1 37548U 97051XH  25347.44761856  .00006537  00000+0  16301-2 0  9994",
        "tle_line2": "2 37548  86.3511  43.0590 0025708 186.1845 173.9047 14.51312722655420"
      },
      "geometry": {
        "type": "Point",
        "coordinates": [
          -138.22626255029158,
          14.439347264228921
        ]
      }
    },
    {
      "type": "Feature",
      "properties": {
        "norad_id": 37550,
        "name": "IRIDIUM 33 DEB",
        "group": "iridium-33-debris",
        "lat": -72.5903402809492,
        "lon": 11.556650738648667,
        "alt_km": 681.189612396839,
        "timestamp": "2025-12-14T05:42:18.847483+00:00",
        "meta_object_name": "IRIDIUM 33 DEB",
        "meta_object_id": "1997-051XK",
        "meta_epoch": "2025-12-13T08:45:33.524640",
        "meta_mean_motion": 14.67228096,
        "meta_eccentricity": 0.00055701,
        "meta_inclination": 86.378,
        "meta_ra_of_asc_node": 23.5976,
        "meta_arg_of_pericenter": 109.645,
        "meta_mean_anomaly": 250.5366,
        "meta_ephemeris_type": 0,
        "meta_classification_type": "U",
        "meta_norad_cat_id": 37550,
        "meta_element_set_no": 999,
        "meta_rev_at_epoch": 86342,
        "meta_bstar": 0.0021536322,
        "meta_mean_motion_dot": 0.00012161,
        "meta_mean_motion_ddot": 0,
        "tle_line1": "1 37550U 97051XK  25347.36497135  .00012161  00000+0  21536-2 0  9990",
        "tle_line2": "2 37550  86.3780  23.5976 0005570 109.6450 250.5366 14.67228096863423"
      },
      "geometry": {
        "type": "Point",
        "coordinates": [
          11.556650738648667,
          -72.5903402809492
        ]
      }
    }
  ]
}